STARLINK-2088
1 17371C 21005Y   21326.13679510  .00003192  00000-0  21384-3 0  3266
2 17371  53.0542 263.1278 0001960  69.7961   7.2574 15.06404750    14
